NORAD_CAT_ID,OBJECT_NAME,OBJECT_TYPE,EPOCH,MEAN_MOTION,ECCENTRICITY,INCLINATION,RA_OF_ASC_NODE,ARG_OF_PERICENTER,MEAN_ANOMALY,BSTAR,MEAN_MOTION_DOT,MEAN_MOTION_DDOT,TLE_LINE0,TLE_LINE1,TLE_LINE2,SEMIMAJOR_AXIS,PERIOD,APOGEE,PERIGEE,DECAYED
54209.0,STARLINK-5259,PAYLOAD,2024-06-06 05:26:48,15.08843223,0.0001074,53.2181,343.4168,76.0215,284.0896,-2.9038e-05,-7.5e-06,0.0,0 STARLINK-5259,1 54209U 22141BE  24158.22694908 -.00000750  00000-0 -29038-4 0  9990,2 54209  53.2181 343.4168 0001074  76.0215 284.0896 15.08843223 89307,6917.871,95.437,540.479,538.993,0.0
54209.0,STARLINK-5259,PAYLOAD,2024-06-06 21:20:38,15.08861649,9.24e-05,53.2217,340.4444,73.5276,286.5818,0.00012535,1.709e-05,0.0,0 STARLINK-5259,1 54209U 22141BE  24158.88933112  .00001709  00000-0  12535-3 0  9991,2 54209  53.2217 340.4444 0000924  73.5276 286.5818 15.08861649 89632,6917.814,95.436,540.318,539.04,0.0
54209.0,STARLINK-5259,PAYLOAD,2024-06-07 21:11:27,15.08845375,0.0002146,53.2137,335.9839,82.8977,277.2259,0.00013457,1.854e-05,0.0,0 STARLINK-5259,1 54209U 22141BE  24159.88295502  .00001854  00000-0  13457-3 0  9991,2 54209  53.2137 335.9839 0002146  82.8977 277.2259 15.08845375 89554,6917.864,95.437,541.214,538.244,0.0
54209.0,STARLINK-5259,PAYLOAD,2024-06-08 05:08:20,15.08865725,6.34e-05,53.2186,334.4948,78.458,281.6484,0.00029291,4.38e-05,0.0,0 STARLINK-5259,1 54209U 22141BE  24160.21412882  .00004380  00000-0  29291-3 0  9992,2 54209  53.2186 334.4948 0000634  78.4580 281.6484 15.08865725 89835,6917.802,95.436,540.105,539.228,0.0
54209.0,STARLINK-5259,PAYLOAD,2024-06-08 11:29:53,15.08864811,0.0002923,53.2141,333.3081,86.7977,273.335,0.00018519,2.662e-05,0.0,0 STARLINK-5259,1 54209U 22141BE  24160.47909663  .00002662  00000-0  18519-3 0  9990,2 54209  53.2141 333.3081 0002923  86.7977 273.3350 15.08864811 89876,6917.805,95.436,541.692,537.647,0.0
54209.0,STARLINK-5259,PAYLOAD,2024-06-08 19:26:49,15.08853922,0.0001915,53.214,331.8206,85.9922,274.1289,-0.00015309,-2.725e-05,0.0,0 STARLINK-5259,1 54209U 22141BE  24160.81029904 -.00002725  00000-0 -15309-3 0  9995,2 54209  53.2140 331.8206 0001915  85.9922 274.1289 15.08853922 89925,6917.838,95.437,541.028,538.378,0.0
54209.0,STARLINK-5259,PAYLOAD,2024-06-08 21:02:12,15.08853901,0.0001899,53.2139,331.5231,86.2477,273.8732,-0.00014123,-2.536e-05,0.0,0 STARLINK-5259,1 54209U 22141BE  24160.87653846 -.00002536  00000-0 -14123-3 0  9992,2 54209  53.2139 331.5231 0001899  86.2477 273.8732 15.08853901 89700,6917.838,95.437,541.017,538.389,0.0
54209.0,STARLINK-5259,PAYLOAD,2024-06-09 04:59:08,15.088603,0.0001841,53.2166,330.0355,92.3274,267.7929,4.3404e-06,-2.19e-06,0.0,0 STARLINK-5259,1 54209U 22141BE  24161.20773177 -.00000219  00000-0  43404-5 0  9991,2 54209  53.2166 330.0355 0001841  92.3274 267.7929 15.08860300 89982,6917.818,95.436,540.957,538.41,0.0
54209.0,STARLINK-5259,PAYLOAD,2024-06-09 20:53:00,15.08836406,0.0001026,53.2183,327.062,90.3511,269.7598,-0.00022617,-3.885e-05,0.0,0 STARLINK-5259,1 54209U 22141BE  24161.87014196 -.00003885  00000-0 -22617-3 0  9997,2 54209  53.2183 327.0620 0001026  90.3511 269.7598 15.08836406 90086,6917.891,95.438,540.466,539.047,0.0
54209.0,STARLINK-5259,PAYLOAD,2024-06-10 14:22:14,15.08840689,0.000169,53.2156,323.7931,87.1447,272.9738,0.0001361,1.879e-05,0.0,0 STARLINK-5259,1 54209U 22141BE  24162.59878370  .00001879  00000-0  13610-3 0  9991,2 54209  53.2156 323.7931 0001690  87.1447 272.9738 15.08840689 89968,6917.878,95.438,540.912,538.574,0.0
54209.0,STARLINK-5259,PAYLOAD,2024-06-10 17:33:01,15.08842758,0.0001671,53.2173,323.1974,89.4332,270.6852,0.0001244,1.692e-05,0.0,0 STARLINK-5259,1 54209U 22141BE  24162.73126249  .00001692  00000-0  12440-3 0  9991,2 54209  53.2173 323.1974 0001671  89.4332 270.6852 15.08842758 90216,6917.872,95.437,540.893,538.581,0.0
54209.0,STARLINK-5259,PAYLOAD,2024-06-11 14:13:02,15.08833909,0.0001394,53.2182,319.332,93.2858,266.8294,0.0004691,7.184e-05,0.0,0 STARLINK-5259,1 54209U 22141BE  24163.59238765  .00007184  00000-0  46910-3 0  9994,2 54209  53.2182 319.3320 0001394  93.2858 266.8294 15.08833909 90110,6917.899,95.438,540.728,538.8,0.0
54209.0,STARLINK-5259,PAYLOAD,2024-06-11 17:23:48,15.08843438,0.0001322,53.2186,318.7367,90.727,269.3873,0.00016757,2.38e-05,0.0,0 STARLINK-5259,1 54209U 22141BE  24163.72486145  .00002380  00000-0  16757-3 0  9995,2 54209  53.2186 318.7367 0001322  90.7270 269.3873 15.08843438 90130,6917.87,95.437,540.649,538.82,0.0
54209.0,STARLINK-5259,PAYLOAD,2024-06-12 09:17:39,15.0883954,0.0001284,53.218,315.7642,92.0469,268.067,7.0693e-05,8.37e-06,0.0,0 STARLINK-5259,1 54209U 22141BE  24164.38726288  .00000837  00000-0  70693-4 0  9998,2 54209  53.2180 315.7642 0001284  92.0469 268.0670 15.08839540 90465,6917.882,95.438,540.635,538.859,0.0
54209.0,STARLINK-5259,PAYLOAD,2024-06-12 15:39:12,15.08831658,0.0001149,53.2178,314.5728,89.5114,270.601,-1.5855e-05,-5.4e-06,0.0,0 STARLINK-5259,1 54209U 22141BE  24164.65223273 -.00000540  00000-0 -15855-4 0  9996,2 54209  53.2178 314.5728 0001149  89.5114 270.6010 15.08831658 90506,6917.906,95.438,540.566,538.976,0.0
54209.0,STARLINK-5259,PAYLOAD,2024-06-13 02:46:54,15.08839047,0.0001105,53.2182,312.4893,81.9588,278.1529,1.8541e-05,7e-08,0.0,0 STARLINK-5259,1 54209U 22141BE  24165.11590801  .00000007  00000-0  18541-4 0  9993,2 54209  53.2182 312.4893 0001105  81.9588 278.1529 15.08839047 90579,6917.883,95.438,540.513,538.984,0.0
54209.0,STARLINK-5259,PAYLOAD,2024-06-13 13:54:36,15.08835298,0.0001104,53.2183,310.4083,84.9342,275.1776,9.2053e-06,-1.41e-06,0.0,0 STARLINK-5259,1 54209U 22141BE  24165.57959230 -.00000141  00000-0  92053-5 0  9999,2 54209  53.2183 310.4083 0001104  84.9342 275.1776 15.08835298 90417,6917.895,95.438,540.523,538.996,0.0
54209.0,STARLINK-5259,PAYLOAD,2024-06-13 17:05:22,15.08847401,0.0001092,53.2181,309.8139,104.3564,255.7549,0.00013124,1.802e-05,0.0,0 STARLINK-5259,1 54209U 22141BE  24165.71206069  .00001802  00000-0  13124-3 0  9994,2 54209  53.2181 309.8139 0001092 104.3564 255.7549 15.08847401 90431,6917.858,95.437,540.478,538.967,0.0
54209.0,STARLINK-5259,PAYLOAD,2024-06-14 13:45:23,15.08834632,0.0001079,53.2182,305.9474,74.9257,285.1855,8.694e-05,1.096e-05,0.0,0 STARLINK-5259,1 54209U 22141BE  24166.57319034  .00001096  00000-0  86940-4 0  9998,2 54209  53.2182 305.9474 0001079  74.9257 285.1855 15.08834632 90560,6917.897,95.438,540.508,539.015,0.0
54209.0,STARLINK-5259,PAYLOAD,2024-06-14 18:31:32,15.08844218,0.0001055,53.2187,305.0557,77.7671,282.3439,0.00016457,2.333e-05,0.0,0 STARLINK-5259,1 54209U 22141BE  24166.77190273  .00002333  00000-0  16457-3 0  9992,2 54209  53.2187 305.0557 0001055  77.7671 282.3439 15.08844218 90594,6917.867,95.437,540.462,539.003,0.0
54209.0,STARLINK-5259,PAYLOAD,2024-06-15 13:36:10,15.0883864,0.0001425,53.2193,301.4886,86.5398,273.5757,5.448e-05,5.79e-06,0.0,0 STARLINK-5259,1 54209U 22141BE  24167.56678969  .00000579  00000-0  54480-4 0  9992,2 54209  53.2193 301.4886 0001425  86.5398 273.5757 15.08838640 90712,6917.885,95.438,540.735,538.764,0.0
54209.0,STARLINK-5259,PAYLOAD,2024-06-15 18:22:19,15.08843512,0.0001456,53.22,300.595,79.0815,281.0341,-8.9958e-06,-4.31e-06,0.0,0 STARLINK-5259,1 54209U 22141BE  24167.76550814 -.00000431  00000-0 -89958-5 0  9990,2 54209  53.2200 300.5950 0001456  79.0815 281.0341 15.08843512 90748,6917.87,95.437,540.742,538.727,0.0
54209.0,STARLINK-5259,PAYLOAD,2024-06-16 15:02:20,15.0884038,0.0001445,53.2175,296.7302,87.0109,273.1049,5.685e-05,6.17e-06,0.0,0 STARLINK-5259,1 54209U 22141BE  24168.62662612  .00000617  00000-0  56850-4 0  9994,2 54209  53.2175 296.7302 0001445  87.0109 273.1049 15.08840380 90870,6917.879,95.438,540.744,538.745,0.0
54209.0,STARLINK-5259,PAYLOAD,2024-06-16 18:13:06,15.08843003,0.0001135,53.2182,296.1358,91.7863,268.326,-2.512e-06,-3.28e-06,0.0,0 STARLINK-5259,1 54209U 22141BE  24168.75910538 -.00000328  00000-0 -25120-5 0  9999,2 54209  53.2182 296.1358 0001135  91.7863 268.3260 15.08843003 90896,6917.871,95.437,540.521,538.951,0.0
54209.0,STARLINK-5259,PAYLOAD,2024-06-17 14:53:07,15.0883285,0.0001357,53.2217,292.2731,96.939,263.1757,6.465e-05,7.41e-06,0.0,0 STARLINK-5259,1 54209U 22141BE  24169.62023056  .00000741  00000-0  64650-4 0  9993,2 54209  53.2217 292.2731 0001357  96.9390 263.1757 15.08832850 91023,6917.902,95.438,540.706,538.828,0.0
54209.0,STARLINK-5259,PAYLOAD,2024-06-18 13:08:31,15.08838621,0.000137,53.2192,288.1101,97.1403,262.9745,7.7122e-05,9.4e-06,0.0,0 STARLINK-5259,1 54209U 22141BE  24170.54758727  .00000940  00000-0  77122-4 0  9995,2 54209  53.2192 288.1101 0001370  97.1403 262.9745 15.08838621 91399,6917.885,95.438,540.697,538.802,0.0
54209.0,STARLINK-5259,PAYLOAD,2024-06-18 14:43:54,15.08840693,0.0001114,53.2179,287.8143,85.3264,274.7855,9.7532e-05,1.265e-05,0.0,0 STARLINK-5259,1 54209U 22141BE  24170.61382608  .00001265  00000-0  97532-4 0  9992,2 54209  53.2179 287.8143 0001114  85.3264 274.7855 15.08840693 91177,6917.878,95.438,540.514,538.973,0.0
54209.0,STARLINK-5259,PAYLOAD,2024-06-19 00:16:12,15.08852812,0.0001177,53.2188,286.031,85.7736,274.339,0.00012646,1.726e-05,0.0,0 STARLINK-5259,1 54209U 22141BE  24171.01125617  .00001726  00000-0  12646-3 0  9996,2 54209  53.2188 286.0310 0001177  85.7736 274.3390 15.08852812 91469,6917.841,95.437,540.52,538.892,0.0
54209.0,STARLINK-5259,PAYLOAD,2024-06-19 12:59:19,15.08826553,0.0001458,53.2193,283.6512,97.1867,262.9291,2.3574e-05,8.7e-07,0.0,0 STARLINK-5259,1 54209U 22141BE  24171.54119841  .00000087  00000-0  23574-4 0  9998,2 54209  53.2193 283.6512 0001458  97.1867 262.9291 15.08826553 91541,6917.921,95.438,540.795,538.778,0.0
54209.0,STARLINK-5259,PAYLOAD,2024-06-19 14:34:42,15.08829543,0.0001448,53.2193,283.3553,97.611,262.5046,4.3083e-05,3.98e-06,0.0,0 STARLINK-5259,1 54209U 22141BE  24171.60743670  .00000398  00000-0  43083-4 0  9990,2 54209  53.2193 283.3553 0001448  97.6110 262.5046 15.08829543 91320,6917.912,95.438,540.779,538.776,0.0
